0 O3B FM4
1 39189U 13031B   13283.38081942 -.00000023  00000-0  10000-3 0   317
2 39189 000.0349 353.8996 0000752 040.4205 325.6894 05.00115438  5346
0 O3B FM4
1 39189U 13031B   13287.77841501 -.00000029  00000-0  10000-3 0   326
2 39189 000.0344 352.7170 0000692 040.3503 326.9403 05.00115360  5564
0 O3B FM4
1 39189U 13031B   13292.17601308 -.00000031  00000-0  10000-3 0   339
2 39189 000.0345 352.4981 0000919 004.0602 003.4478 05.00115366  5780
